C/2020 N2 (ATLAS),e,161.0385,257.1810,331.2144,101.5627,0.0009629,0.98242923,0.0000,08/24.3246/2020,2000,g 16.0,3.2
# From MPEC 2024-JU4
C/2020 O2 (Amaral),e,71.7621,256.7920,10.1841,17824,0.0000004,0.99972749,0.0000,08/27.3734/2021,2000,g  8.0,3.2
# From MPEC 2023-C45
P/2020 O3 (PANSTARRS),e,8.4445,266.8186,81.2425,4.646330,0.0984100,0.10240616,153.6743,05/06.0/2025,2000,g 12.0,4.0
# From MPEC 2021-BE3
C/2020 P1 (NEOWISE),h,10/21.1683/2020,45.1231,53.4855,8.9289,1.000431,0.341624,2000,14.0,3.2
# From MPEC 2024-JU4
C/2020 P3 (ATLAS),h,04/22.8451/2021,61.8593,19.4828,82.3445,1.003618,6.815686,2000,6.0,4.0
# From MPEC 2022-PB4
C/2020 PV6 (PANSTARRS),e,128.1589,329.1307,71.2884,41.70149,0.0036600,0.94505624,4.8243,05/06.0/2025,2000,g 10.0,4.0
# From MPEC 2022-L66
C/2020 Q1 (Borisov),e,142.9273,52.4089,10.0249,62.28802,0.0020049,0.97881710,0.0000,08/15.2251/2020,2000,g 14.0,4.0
# From MPEC 2023-CD7
C/2020 Q2 (PANSTARRS),e,3.3357,179.8254,118.2206,10.60432,0.0285417,0.48894080,55.0244,05/06.0/2025,2000,g 12.0,3.2
# From MPEC 2024-F34
C/2020 R2 (PANSTARRS),e,53.2175,195.1234,211.8808,430.8088,0.0001102,0.98909307,0.0000,02/25.3670/2022,2000,g  9.0,4.0
# From MPEC 2022-K19
C/2020 R4 (ATLAS),e,164.4068,323.2365,46.5243,97.48680,0.0010240,0.98952679,0.0000,03/02.2601/2021,2000,g 13.5,4.0
# From MPEC 2023-C45
P/2020 R5 (PANSTARRS),e,11.4395,272.9393,82.7580,4.993055,0.0883394,0.31320350,159.3902,05/06.0/2025,2000,g  9.5,6.0
# From MPEC 2021-Y10
C/2020 R6 (Rankin),e,82.8836,12.2292,271.9991,291.8233,0.0001977,0.98924246,0.0000,09/06.9035/2019,2000,g 11.0,4.0
# From MPEC 2024-PC5
C/2020 R7 (ATLAS),e,114.9032,268.3093,347.7696,10388,0.0000009,0.99971581,0.0000,09/16.0619/2022,2000,g  7.0,3.2
# From MPEC 2021-BE3
P/2020 S1 (PANSTARRS),e,13.7154,129.4932,255.1555,6.001614,0.0670351,0.50694452,105.2422,05/06.0/2025,2000,g 14.0,4.0
# From MPEC 2022-ST7
C/2020 S2 (PANSTARRS),e,22.3782,197.7081,202.4184,10.24989,0.0300348,0.82797494,47.9326,05/06.0/2025,2000,g 17.0,4.0
# From MPEC 2024-JU4
C/2020 S3 (Erasmus),e,20.0592,222.5294,350.0479,141.6830,0.0005844,0.99722647,0.0000,12/11.3871/2020,2000,g 13.5,3.2
# From MPEC 2024-N80
C/2020 S4 (PANSTARRS),h,02/09.5400/2023,20.5697,117.6847,21.0531,1.002664,3.370300,2000,8.5,3.2
# From MPEC 2021-BE3
P/2020 S5 (PANSTARRS),e,12.3404,316.0236,53.2762,4.058249,0.1205580,0.33740354,208.7912,05/06.0/2025,2000,g 14.5,4.0
# From MPEC 2021-BE3
P/2020 S7 (PANSTARRS),e,16.0711,328.0843,40.6613,5.036535,0.0871979,0.40958578,142.1569,05/06.0/2025,2000,g 14.5,4.0
# From MPEC 2021-P47
C/2020 S8 (Lemmon),e,108.5411,24.0156,160.1368,240.2149,0.0002647,0.99019263,0.0000,04/10.4075/2021,2000,g 12.5,4.0
# From MPEC 2022-TD3
C/2020 T2 (Palomar),e,27.8391,83.0389,150.3529,270.9241,0.0002210,0.99242172,0.0000,07/10.5668/2021,2000,g 11.0,3.2
# From MPEC 2021-N06
P/2020 T3 (PANSTARRS),e,7.2987,73.9923,357.0770,3.516154,0.1494866,0.59244218,233.9197,05/06.0/2025,2000,g 18.0,3.2
# From MPEC 2021-N06
C/2020 T4 (PANSTARRS),h,07/06.0310/2021,83.8326,50.6095,79.5720,1.000627,2.187907,2000,13.0,3.2
# From MPEC 2021-BE3
C/2020 T5 (Lemmon),e,66.5546,237.8401,90.3831,613.8448,0.0000648,0.99690882,0.0000,10/07.8606/2020,2000,g 16.0,4.0
# From MPEC 2021-N06
P/2020 U2 (PANSTARRS),e,6.4196,342.8217,84.7626,3.777891,0.1342239,0.51135067,213.5060,05/06.0/2025,2000,g 18.0,4.0
# From MPEC 2021-W31
C/2020 U3 (Rankin),e,30.1392,282.6035,124.5031,67.63427,0.0017720,0.96621634,2.7464,05/06.0/2025,2000,g 15.0,4.0
# From MPEC 2024-TD8
C/2020 U4 (PANSTARRS),h,04/09.9599/2022,167.0034,120.4055,70.1695,1.001152,5.361621,2000,7.0,4.0
# From MPEC 2024-GJ3
C/2020 U5 (PANSTARRS),e,97.3101,107.3133,75.4648,9382,0.0000011,0.99959955,0.0000,04/28.3332/2022,2000,g  8.0,4.0
# From MPEC 2025-J08
C/2020 V2 (ZTF),h,05/08.5151/2023,131.6126,212.3950,162.4506,1.001024,2.229123,2000,4.9,4.0
# From MPEC 2023-D72
P/2020 V3 (PANSTARRS),e,23.0224,198.2679,249.7768,8.406926,0.0404341,0.25789032,62.2960,05/06.0/2025,2000,g  8.3,4.0
# From MPEC 2024-F34
P/2020 V4 (Rankin),e,14.2378,203.4887,257.2357,9.396628,0.0342173,0.45157201,47.4063,05/06.0/2025,2000,g  9.0,4.0
# From MPEC 2021-BE3
P/2020 W1 (Rankin),e,10.7775,124.3869,265.3855,7.225729,0.0507436,0.26555978,93.9525,05/06.0/2025,2000,g 10.0,4.0
# From MPEC 2021-BE3
C/2020 W5 (Lemmon),h,11/30.8737/2020,88.6164,75.4665,24.5987,1.002091,3.370423,2000,15.0,4.0
# From MPEC 2024-PC5
P/2020 WJ5 (Lemmon),e,22.2881,177.7675,338.0797,6.015493,0.0668032,0.17208637,93.8964,05/06.0/2025,2000,g  8.5,4.0
# From MPEC 2024-F34
P/2020 X1 (ATLAS),e,31.6925,55.9865,323.5275,4.535944,0.1020240,0.36447680,178.6351,05/06.0/2025,2000,g 13.0,4.0
# From MPEC 2024-A43
C/2020 X2 (ATLAS),e,18.1864,105.3581,347.5570,16.53704,0.0146561,0.76829663,23.9020,05/06.0/2025,2000,g 10.6,4.0
# From MPEC 2021-S45
C/2020 X4 (Leonard),e,80.6555,161.9500,140.2966,40.60192,0.0038096,0.87132989,6.2193,05/06.0/2025,2000,g  9.0,4.0
# From MPEC 2024-YC7
C/2020 Y2 (ATLAS),e,101.2072,26.5376,266.4139,1302,0.0000210,0.99758413,0.0000,06/17.8262/2022,2000,g  6.5,4.0
# From MPEC 2021-R75
C/2020 Y3 (ATLAS),e,83.1388,191.3543,341.8529,137.6398,0.0006104,0.98553818,0.0000,12/03.2315/2020,2000,g 13.5,4.0
# From MPEC 2025-A40
C/2021 A1 (Leonard),h,01/03.7526/2022,132.7557,255.9120,225.1393,1.000234,0.615524,2000,8.5,4.0
# From MPEC 2025-A40
C/2021 A2 (NEOWISE),e,107.0503,125.0691,338.7943,229.0902,0.0002842,0.99382002,0.0000,01/21.9111/2021,2000,g 13.5,4.0
# From MPEC 2022-ED3
C/2021 A4 (NEOWISE),e,111.6395,307.0906,204.7503,42.50493,0.0035567,0.97294036,0.0000,03/19.5567/2021,2000,g 16.0,4.0
# From MPEC 2021-BE3
P/2021 A5 (PANSTARRS),e,18.1891,328.8097,61.5230,3.046511,0.1853532,0.13981619,302.6843,05/06.0/2025,2000,g 15.0,4.0
# From MPEC 2024-P23
C/2021 A6 (PANSTARRS),e,75.5657,164.0291,351.6219,11580,0.0000008,0.99931569,0.0000,05/03.0297/2021,2000,g  7.0,4.0
# From MPEC 2022-M88
C/2021 A7 (NEOWISE),e,78.2126,154.4090,355.9974,1867,0.0000122,0.99894769,0.0000,07/15.1530/2021,2000,g 10.0,4.0
# From MPC182879
C/2021 A9 (PANSTARRS),h,12/03.8772/2023,158.0178,314.8520,211.6254,1.000278,7.763316,2000,6.0,4.0
# From MPEC 2021-N06
C/2021 A10 (NEOWISE),e,151.9908,188.8304,82.6297,89.63381,0.0011614,0.98587137,0.0000,03/14.7352/2021,2000,g 19.0,4.0
# From MPEC 2022-L66
C/2021 B2 (PANSTARRS),e,38.0864,120.4434,335.1072,405.8499,0.0001205,0.99380433,0.0000,05/04.8325/2021,2000,g 14.0,4.0
# From MPEC 2021-N06
C/2021 B3 (NEOWISE),e,119.4767,67.2798,293.5952,34.22315,0.0049229,0.93666130,7.4761,05/06.0/2025,2000,g 13.5,4.0
# From MPEC 2023-KD6
C/2021 C1 (Rankin),e,143.0428,186.8332,336.0678,1915,0.0000118,0.99818638,0.0000,12/05.8391/2020,2000,g 11.5,4.0
# From MPEC 2021-U31
P/2021 C2 (PANSTARRS),e,21.9389,66.4556,78.7179,9.544732,0.0334240,0.48832419,51.1884,05/06.0/2025,2000,g 12.0,4.0
# From MPEC 2024-M41
C/2021 C3 (Catalina),e,122.2035,181.8590,356.9784,60.47008,0.0020960,0.96239605,3.2380,05/06.0/2025,2000,g 14.0,4.0
# From MPEC 2022-M88
C/2021 C4 (ATLAS),e,132.8331,194.2333,320.0352,4091,0.0000038,0.99890167,0.0000,01/16.2500/2021,2000,g  9.0,4.0
# From MPEC 2024-N80
C/2021 C5 (PANSTARRS),e,50.8023,323.6734,270.8929,1711,0.0000139,0.99810618,0.0000,02/10.9778/2023,2000,g  9.0,4.0
# From MPEC 2022-YB4
C/2021 C6 (Lemmon),e,164.6086,332.3280,203.8498,2697,0.0000070,0.99878263,0.0000,11/11.9603/2021,2000,g 12.0,4.0
# From MPEC 2022-F14
C/2021 D1 (SWAN),e,31.3602,311.1703,72.4462,102.0272,0.0009564,0.99110328,0.0000,02/27.4039/2021,2000,g 13.0,4.0
# From MPEC 2023-J29
C/2021 D2 (ZTF),h,02/03.6897/2022,83.7737,305.6314,125.0628,1.001446,2.949144,2000,9.0,4.0
# From MPEC 2022-UY9
A/2021 E2,e,167.4931,190.7572,342.2285,201.3580,0.0003449,0.98866263,0.0000,12/09.0656/2020,2000,g 15.0,2.0
# From MPEC 2024-GJ3
C/2021 E3 (ZTF),e,112.5256,104.4839,228.8045,25348,0.0000002,0.99992988,0.0000,06/11.2351/2022,2000,g  8.5,4.0
# From MPEC 2024-N80
A/2021 E4,e,116.3788,171.1439,48.2792,504.8654,0.0000869,0.99073133,0.0000,04/24.8377/2022,2000,g 13.5,2.0
# From MPEC 2022-QD9
C/2021 F1 (Lemmon-PANSTARRS),e,107.2947,203.5394,146.9396,247.9543,0.0002524,0.99597061,0.0000,04/06.7374/2022,2000,g 13.5,4.0
# From MPEC 2021-J72
C/2021 G1 (Leonard),e,131.5470,270.6979,107.4331,71.15700,0.0016420,0.95183328,2.2751,05/06.0/2025,2000,g 14.0,4.0
# From MPEC 2025-J08
C/2021 G2 (ATLAS),h,09/09.1400/2024,48.4679,221.0950,343.2675,1.000675,4.982321,2000,5.5,4.0
# From MPEC 2022-X67
C/2021 G3 (PANSTARRS),e,102.8720,147.3496,10.5944,8701,0.0000012,0.99940443,0.0000,10/17.8493/2021,2000,g 10.5,4.0
# From MPEC 2021-Y10
P/2021 HS (PANSTARRS),e,12.1547,262.3595,46.1217,4.193530,0.1147716,0.80942214,157.2465,05/06.0/2025,2000,g 22.0,4.0
# From MPEC 2022-C56
C/2021 J1 (Maury-Attard),e,92.7079,88.4316,147.2070,26.20834,0.0073459,0.93382153,11.2875,05/06.0/2025,2000,g 15.5,4.0
# From MPEC 2023-XP6
C/2021 J2 (PANSTARRS),e,156.2117,23.3111,171.8893,112.1693,0.0008296,0.95808645,1.0977,05/06.0/2025,2000,g 12.0,4.0
# From MPEC 2024-F34
P/2021 J3 (ATLAS),e,14.5160,111.0156,125.6490,8.892413,0.0371685,0.44933205,79.4105,05/06.0/2025,2000,g  7.0,4.0
# From MPEC 2022-O08
C/2021 K1 (ATLAS),e,16.2713,140.9234,184.2286,12.60901,0.0220132,0.80157298,32.2374,05/06.0/2025,2000,g 11.0,4.0
# From MPEC 2022-O01
C/2021 K2 (MASTER),h,09/09.2969/2021,100.8708,282.3362,343.2853,1.000514,5.464331,2000,8.0,4.0
# From MPEC 2022-L66
C/2021 K3 (Catalina),h,02/03.6913/2022,134.7805,114.6059,182.0192,1.004251,5.228149,2000,10.0,4.0
# From MPEC 2021-W31
P/2021 L2 (Leonard),e,21.0647,266.6537,51.4394,4.047644,0.1210321,0.52076709,167.3978,05/06.0/2025,2000,g 17.0,4.0
# From MPEC 2024-H50
C/2021 L3 (Borisov),h,02/14.9797/2022,78.5410,345.0152,91.6491,1.004583,8.460057,2000,6.0,4.0
# From MPEC 2022-TA0
P/2021 N1 (ZTF),e,11.4857,301.1360,21.2274,2.979685,0.1916234,0.67572880,274.1807,05/06.0/2025,2000,g 19.0,4.0
# From MPEC 2024-GJ3
P/2021 N2 (Fuls),e,13.0603,221.7418,177.6247,6.946621,0.0538324,0.45219904,68.3014,05/06.0/2025,2000,g  9.5,4.0
# From MPEC 2022-YB4
